[{"OBJECT_NAME":"STARLINK-32591","OBJECT_ID":"2024-196M","EPOCH":"2026-03-09T07:00:32.816736","MEAN_MOTION":15.30193223,"ECCENTRICITY":9.583e-5,"INCLINATION":53.1611,"RA_OF_ASC_NODE":90.5118,"ARG_OF_PERICENTER":85.381,"MEAN_ANOMALY":274.7301,"EPHEMERIS_TYPE":0,"CLASSIFICATION_TYPE":"U","NORAD_CAT_ID":61718,"ELEMENT_SET_NO":999,"REV_AT_EPOCH":7727,"BSTAR":2.5556316e-5,"MEAN_MOTION_DOT":3.98e-6,"MEAN_MOTION_DDOT":0},{"OBJECT_NAME":"TEVEL2-8","OBJECT_ID":"2025-052AF","EPOCH":"2026-03-09T16:02:08.542752","MEAN_MOTION":15.28392908,"ECCENTRICITY":0.0008031,"INCLINATION":97.4055,"RA_OF_ASC_NODE":324.2923,"ARG_OF_PERICENTER":124.9191,"MEAN_ANOMALY":235.2804,"EPHEMERIS_TYPE":0,"CLASSIFICATION_TYPE":"U","NORAD_CAT_ID":63239,"ELEMENT_SET_NO":999,"REV_AT_EPOCH":5480,"BSTAR":0.00069303947,"MEAN_MOTION_DOT":0.0001913,"MEAN_MOTION_DDOT":0}]
