STARLINK-32591          
1 61718U 24196M   26068.29204649  .00000398  00000+0  25556-4 0  9999
2 61718  53.1611  90.5118 0000958  85.3810 274.7301 15.30193223 77279
TEVEL2-8                
1 63239U 25052AF  26068.66815442  .00019130  00000+0  69304-3 0  9993
2 63239  97.4055 324.2923 0008031 124.9191 235.2804 15.28392908 54807
